KUIPER-00074            
1 64821U 25151F   25362.12164333 -.00001516  00000+0 -16911-3 0  9991
2 64821  51.9011 247.0647 0013849  37.9813 322.2124 14.79928247 24843
KUIPER-00075            
1 64822U 25151G   25362.28539186  .00068712  00000+0  16863-2 0  9995
2 64822  51.8727 208.6871 0004074  46.7797 313.3530 15.40051193 25397
KUIPER-00076            
1 64823U 25151H   25362.05134318  .00005529  00000+0  75318-3 0  9997
2 64823  51.9001 249.8686 0005680  38.2932 321.8433 14.79961987 24809
KUIPER-00077            
1 64824U 25151J   25362.11348250  .00006107  00000+0  82903-3 0  9998
2 64824  51.9004 254.6005 0006183   1.6709 358.4273 14.79949936 24748
KUIPER-00078            
1 64825U 25151K   25362.08248954  .00006532  00000+0  88470-3 0  9992
2 64825  51.9002 252.2307 0008859  54.4379 305.7408 14.79933048 24772
KUIPER-00079            
1 64826U 25151L   25362.11081061  .00004822  00000+0  65993-3 0  9996
2 64826  51.8997 257.0895 0012024   6.8480 353.2645 14.79980887 25903
KUIPER-00080            
1 64827U 25151M   25362.07710636  .00006450  00000+0  87469-3 0  9990
2 64827  51.8989 257.2449 0006247  29.2853 330.8459 14.79908637 24709
KUIPER-00082            
1 64828U 25151N   25362.05670679 -.00000560  00000+0 -44314-4 0  9992
2 64828  51.8983 244.8516 0005473  54.9638 305.1837 14.79921358 24875
KUIPER-00083            
1 64829U 25151P   25362.11612133  .00006075  00000+0  82446-3 0  9993
2 64829  51.9002 252.0819 0011374   7.9343 352.1797 14.79946761 25967
KUIPER-00084            
1 64830U 25151Q   25362.10508835  .00006603  00000+0  90005-3 0  9994
2 64830  51.8997 262.1152 0010545 344.1320  15.9310 14.79636559 24632
KUIPER-00085            
1 64831U 25151R   25362.09051124  .00003919  00000+0  54261-3 0  9998
2 64831  51.9023 244.7186 0007730  28.7977 331.3411 14.79947094 24874
KUIPER-00086            
1 64832U 25151S   25362.07971350 -.00000945  00000+0 -94501-4 0  9999
2 64832  51.9011 254.7512 0010802   6.1096 353.9997 14.79947978 24737
KUIPER-00087            
1 64833U 25151T   25362.03109371  .00003955  00000+0  54749-3 0  9993
2 64833  51.8984 237.4572 0000787  67.4000 292.7046 14.79934137 24969
KUIPER-00089            
1 64834U 25151U   25362.02566011 -.00000394  00000+0 -22619-4 0  9999
2 64834  51.9013 242.4837 0002150 104.1279 255.9922 14.79946135 24906
KUIPER-00090            
1 64835U 25151V   25362.05515982  .00004312  00000+0  64121-3 0  9999
2 64835  51.8967 234.4251 0004681 108.8705 251.2764 14.76661926 25016
KUIPER-00091            
1 64836U 25151W   25362.09596493  .00004265  00000+0  58821-3 0  9997
2 64836  51.8997 239.6812 0008558  61.4336 298.7487 14.79925391 24942
KUIPER-00092            
1 64837U 25151X   25362.08780168 -.00001653  00000+0 -18786-3 0  9997
2 64837  51.9012 247.2141 0003145  40.5003 319.6193 14.79922729 26051
KUIPER-00093            
1 64838U 25151Y   25362.08514552 -.00024531  00000+0 -31951-2 0  9998
2 64838  51.8999 249.7121 0002704  50.8775 309.2428 14.79999434 24804
KUIPER-00094            
1 64839U 25151Z   25362.06416304  .00010985  00000+0  78340-3 0  9993
2 64839  51.8886 231.8466 0004471  44.9311 315.2024 15.05001118 25057
KUIPER-00081            
1 65132U 25171A   25362.33335648 -.01036810  00000+0 -12589+0 0  9990
2 65132  51.9169 103.8277 0001255 349.8363 200.1994 14.86380777  5334
KUIPER-00088            
1 65133U 25171B   25361.62671719  .00003732  00000+0  55761-3 0  9991
2 65133  51.8983 124.7108 0007650 238.5221 121.4993 14.76770888 22119
KUIPER-00095            
1 65134U 25171C   25361.60392656  .00008325  00000+0  75806-3 0  9995
2 65134  51.8911 108.0230 0004610 243.8524 116.1971 14.95892830 22345
KUIPER-00096            
1 65135U 25171D   25362.29821799  .00002574  00000+0  36650-3 0  9991
2 65135  51.8968 113.7761 0009860 271.1339  88.8494 14.79943528 22326
KUIPER-00097            
1 65136U 25171E   25362.29562225  .00005641  00000+0  76809-3 0  9996
2 65136  51.9011 116.4060 0009721 273.9534  86.0317 14.79928242 22276
KUIPER-00098            
1 65137U 25171F   25361.55001162  .00005778  00000+0  78562-3 0  9992
2 65137  51.8993 122.0880 0006971 253.7878 106.2318 14.79960469 21484
KUIPER-00099            
1 65138U 25171G   25361.99980771  .00005785  00000+0  78619-3 0  9994
2 65138  51.9012 110.0664 0000556 129.2349 230.8663 14.79987959 22344
KUIPER-00100            
1 65139U 25171H   25362.33335648  .00000826  00000+0  13738-3 0  9993
2 65139  51.8996 105.9688 0000542  86.9082 114.9999 14.79900936  5763
KUIPER-00102            
1 65140U 25171J   25362.33335648  .00006635  00000+0  89884-3 0  9994
2 65140  51.8975 108.6256 0000914 118.7794  39.4469 14.79914042  5676
KUIPER-00103            
1 65141U 25171K   25361.77839352  .00006075  00000+0  82457-3 0  9990
2 65141  51.8976 128.5694 0005582 248.8953 111.1412 14.79961857 22067
KUIPER-00104            
1 65142U 25171L   25362.06004383  .00005219  00000+0  76969-3 0  9992
2 65142  51.9001 114.0491 0003363 304.4936  55.5707 14.76653426 22298
KUIPER-00105            
1 65143U 25171M   25361.61483395  .00006343  00000+0  85882-3 0  9990
2 65143  51.8993 124.3641 0012120 223.7218 136.2785 14.79972470 22116
KUIPER-00106            
1 65144U 25171N   25361.54476284  .00009268  00000+0  82504-3 0  9999
2 65144  51.8940 122.7046 0008912 218.7266 141.3065 14.96640487 22130
KUIPER-00107            
1 65145U 25171P   25362.33335648 -.00012378  00000+0 -14778-2 0  9991
2 65145  51.8991 103.7149 0004168 301.7318 141.6135 14.83154198  5801
KUIPER-00108            
1 65146U 25171Q   25361.58599208  .00005221  00000+0  71148-3 0  9994
2 65146  51.9025 119.4294 0008082 232.9638 127.0586 14.80036224 22189
KUIPER-00109            
1 65147U 25171R   25361.62569296  .00005428  00000+0  73951-3 0  9997
2 65147  51.9016 114.2012 0011657 248.8375 111.1342 14.79962692 22254
KUIPER-00110            
1 65148U 25171S   25362.05118962  .00001281  00000+0  19708-3 0  9999
2 65148  51.8999 124.9243 0002223 269.1622  90.9085 14.79933395 22131
KUIPER-00111            
1 65149U 25171T   25361.67429342  .00005129  00000+0  70104-3 0  9996
2 65149  51.8960 131.5167 0008150 234.6485 125.3716 14.79937194 22010
KUIPER-00112            
1 65150U 25171U   25362.26716022  .00001814  00000+0  26699-3 0  9995
2 65150  51.8994 111.4227 0008777 293.4005  66.6034 14.79936407 22341
KUIPER-00114            
1 65151U 25171V   25361.73902916  .00005943  00000+0  80770-3 0  9993
2 65151  51.8982 133.7684 0005923 220.3792 139.6731 14.79938440 21988
KUIPER-00115            
1 65152U 25171W   25362.08491430  .00006131  00000+0  83204-3 0  9992
2 65152  51.8997 124.7230 0009327 247.6679 112.3295 14.79938308 22145
KUIPER-00116            
1 65153U 25171X   25362.31588570  .00004691  00000+0  64342-3 0  9992
2 65153  51.8986 128.7439 0009609 211.7126 148.3259 14.79953747 22100
KUIPER-00118            
1 65154U 25171Y   25362.11063513  .00006021  00000+0  81746-3 0  9992
2 65154  51.9008 132.1078 0001123 190.3962 169.6977 14.79965660 22041
KUIPER-00119            
1 65155U 25171Z   25361.71885106  .00006332  00000+0  85776-3 0  9990
2 65155  51.8992 121.4222 0007903 241.0009 119.0161 14.79978609 22156
KUIPER-00120            
1 65762U 25217A   25362.31202607 -.00128477  00000+0 -17958-1 0  9993
2 65762  51.9008   7.5121 0003245  64.3981 295.7316 14.77981937 14185
KUIPER-00132            
1 65763U 25217B   25362.23639869  .00055320  00000+0  14628-2 0  9995
2 65763  51.8650 349.7708 0008057  69.3551 290.8299 15.37841793 14429
KUIPER-00133            
1 65764U 25217C   25362.32717623  .00002805  00000+0  39671-3 0  9997
2 65764  51.9041   8.6639 0011956  82.4726 277.7594 14.79935317 14176
KUIPER-00139            
1 65765U 25217D   25362.25163247  .00013485  00000+0  10384-2 0  9992
2 65765  51.8874   0.9362 0008788  73.2105 286.9830 15.01889308 14276
KUIPER-00142            
1 65766U 25217E   25362.33335648 -.00771245  00000+0 -62291-1 0  9998
2 65766  51.9023 352.4116 0002791  91.5439  64.4929 15.01930059  4735
KUIPER-00145            
1 65767U 25217F   25362.33335648 -.00029172  00000+0 -27461-2 0  9995
2 65767  51.8962 354.3355 0006914  74.2778  84.5152 14.93256454  5651
KUIPER-00147            
1 65768U 25217G   25362.33335648 -.00108703  00000+0 -10570-1 0  9996
2 65768  51.8946 356.7752 0011922  76.6939 302.2839 14.92635024  5409
KUIPER-00148            
1 65769U 25217H   25362.23650442  .00021669  00000+0  13794-2 0  9993
2 65769  51.8790 355.7050 0010201  96.7995 263.4141 15.08668955 14345
KUIPER-00150            
1 65770U 25217J   25362.26228277  .00002199  00000+0  31727-3 0  9999
2 65770  51.9034   6.4484 0000871 140.2119 219.8908 14.79941058 14199
KUIPER-00151            
1 65771U 25217K   25362.33335648  .00001257  00000+0  18345-3 0  9994
2 65771  51.9025 358.6886 0001546 113.7357 193.6230 14.82392482  5256
KUIPER-00152            
1 65772U 25217L   25362.33335648  .00030333  00000+0  15185-2 0  9990
2 65772  51.8864 349.6135 0003248  79.1443   3.1402 15.17143298  4945
KUIPER-00153            
1 65773U 25217M   25362.30401250  .00019071  00000+0  11244-2 0  9999
2 65773  51.8793 359.7982 0013442  74.6811 285.5650 15.11517524 14296
KUIPER-00155            
1 65774U 25217N   25362.23313230  .00046552  00000+0  12393-2 0  9992
2 65774  51.8687 349.7710 0009489  74.5172 285.6862 15.37696403 14425
KUIPER-00156            
1 65775U 25217P   25362.33335648 -.01001637  00000+0 -33871-1 0  9992
2 65775  51.8756 348.4645 0002911  64.9617 185.9077 15.32697089  5275
KUIPER-00158            
1 65776U 25217Q   25362.33335648 -.00011979  00000+0 -15343-2 0  9997
2 65776  51.8981   1.1351 0001837 117.4916  51.4426 14.80224468  5730
KUIPER-00163            
1 65777U 25217R   25362.29776461  .00089734  00000+0  11976-1 0  9994
2 65777  51.8993   3.7819 0000978  61.5871 298.5189 14.78743953 14232
